[
  {
    "OBJECT_NAME": "STARLINK-31951",
    "OBJECT_ID": "24100F",
    "EPOCH": "2025-11-11T01:00:22.363200",
    "MEAN_MOTION": 15.27587696,
    "ECCENTRICITY": 0.0001381,
    "INCLINATION": 43.0022,
    "RA_OF_ASC_NODE": 75.2525,
    "ARG_OF_PERICENTER": 284.2763,
    "MEAN_ANOMALY": 75.7935,
    "EPHEMERIS_TYPE": 0,
    "CLASSIFICATION_TYPE": "U",
    "NORAD_CAT_ID": 59890,
    "ELEMENT_SET_NO": 999,
    "REV_AT_EPOCH": 8291,
    "BSTAR": 7.814000000000001e-05,
    "MEAN_MOTION_DOT": 1.889e-05,
    "MEAN_MOTION_DDOT": 0.0,
    "TLE_LINE1": "1 59890U 24100F   25315.04192550  .00001889  00000+0  78140-4 0  9999",
    "TLE_LINE2": "2 59890  43.0022  75.2525 0001381 284.2763  75.7935 15.27587696 82917",
    "COMMENT": "Grouped by shell and plane from TLE"
  },
  {
    "OBJECT_NAME": "STARLINK-31949",
    "OBJECT_ID": "24100G",
    "EPOCH": "2025-11-11T07:33:39.516480",
    "MEAN_MOTION": 15.27586213,
    "ECCENTRICITY": 7.89e-05,
    "INCLINATION": 42.9977,
    "RA_OF_ASC_NODE": 73.8571,
    "ARG_OF_PERICENTER": 299.5574,
    "MEAN_ANOMALY": 60.5199,
    "EPHEMERIS_TYPE": 0,
    "CLASSIFICATION_TYPE": "U",
    "NORAD_CAT_ID": 59891,
    "ELEMENT_SET_NO": 999,
    "REV_AT_EPOCH": 8295,
    "BSTAR": 6.110100000000001e-05,
    "MEAN_MOTION_DOT": 1.42e-05,
    "MEAN_MOTION_DDOT": 0.0,
    "TLE_LINE1": "1 59891U 24100G   25315.31504070  .00001420  00000+0  61101-4 0  9994",
    "TLE_LINE2": "2 59891  42.9977  73.8571 0000789 299.5574  60.5199 15.27586213 82952",
    "COMMENT": "Grouped by shell and plane from TLE"
  },
  {
    "OBJECT_NAME": "STARLINK-31963",
    "OBJECT_ID": "24100J",
    "EPOCH": "2025-11-10T09:55:50.177280",
    "MEAN_MOTION": 15.27573611,
    "ECCENTRICITY": 7.28e-05,
    "INCLINATION": 43.0015,
    "RA_OF_ASC_NODE": 79.1311,
    "ARG_OF_PERICENTER": 210.7613,
    "MEAN_ANOMALY": 149.3197,
    "EPHEMERIS_TYPE": 0,
    "CLASSIFICATION_TYPE": "U",
    "NORAD_CAT_ID": 59893,
    "ELEMENT_SET_NO": 999,
    "REV_AT_EPOCH": 8291,
    "BSTAR": 0.00022531000000000002,
    "MEAN_MOTION_DOT": 5.942e-05,
    "MEAN_MOTION_DDOT": 0.0,
    "TLE_LINE1": "1 59893U 24100J   25314.41377520  .00005942  00000+0  22531-3 0  9990",
    "TLE_LINE2": "2 59893  43.0015  79.1311 0000728 210.7613 149.3197 15.27573611 82910",
    "COMMENT": "Grouped by shell and plane from TLE"
  },
  {
    "OBJECT_NAME": "STARLINK-31964",
    "OBJECT_ID": "24100L",
    "EPOCH": "2025-11-11T00:45:34.649856",
    "MEAN_MOTION": 15.27583944,
    "ECCENTRICITY": 0.0001262,
    "INCLINATION": 43.0018,
    "RA_OF_ASC_NODE": 75.1737,
    "ARG_OF_PERICENTER": 268.6281,
    "MEAN_ANOMALY": 91.4426,
    "EPHEMERIS_TYPE": 0,
    "CLASSIFICATION_TYPE": "U",
    "NORAD_CAT_ID": 59895,
    "ELEMENT_SET_NO": 999,
    "REV_AT_EPOCH": 8296,
    "BSTAR": 2.3344000000000002e-05,
    "MEAN_MOTION_DOT": 3.8e-06,
    "MEAN_MOTION_DDOT": 0.0,
    "TLE_LINE1": "1 59895U 24100L   25315.03165104  .00000380  00000+0  23344-4 0  9999",
    "TLE_LINE2": "2 59895  43.0018  75.1737 0001262 268.6281  91.4426 15.27583944 82967",
    "COMMENT": "Grouped by shell and plane from TLE"
  },
  {
    "OBJECT_NAME": "STARLINK-31905",
    "OBJECT_ID": "24100M",
    "EPOCH": "2025-11-10T14:35:17.570400",
    "MEAN_MOTION": 15.27583652,
    "ECCENTRICITY": 0.0001067,
    "INCLINATION": 43.0004,
    "RA_OF_ASC_NODE": 74.5503,
    "ARG_OF_PERICENTER": 252.6237,
    "MEAN_ANOMALY": 107.4498,
    "EPHEMERIS_TYPE": 0,
    "CLASSIFICATION_TYPE": "U",
    "NORAD_CAT_ID": 59896,
    "ELEMENT_SET_NO": 999,
    "REV_AT_EPOCH": 8298,
    "BSTAR": 7.855600000000001e-05,
    "MEAN_MOTION_DOT": 1.9e-05,
    "MEAN_MOTION_DDOT": 0.0,
    "TLE_LINE1": "1 59896U 24100M   25314.60784225  .00001900  00000+0  78556-4 0  9997",
    "TLE_LINE2": "2 59896  43.0004  74.5503 0001067 252.6237 107.4498 15.27583652 82989",
    "COMMENT": "Grouped by shell and plane from TLE"
  },
  {
    "OBJECT_NAME": "STARLINK-31928",
    "OBJECT_ID": "24100N",
    "EPOCH": "2025-11-10T08:38:19.695552",
    "MEAN_MOTION": 15.27580402,
    "ECCENTRICITY": 0.0001798,
    "INCLINATION": 43.0012,
    "RA_OF_ASC_NODE": 79.5909,
    "ARG_OF_PERICENTER": 263.1871,
    "MEAN_ANOMALY": 96.8776,
    "EPHEMERIS_TYPE": 0,
    "CLASSIFICATION_TYPE": "U",
    "NORAD_CAT_ID": 59897,
    "ELEMENT_SET_NO": 999,
    "REV_AT_EPOCH": 8280,
    "BSTAR": 4.434100000000001e-05,
    "MEAN_MOTION_DOT": 9.58e-06,
    "MEAN_MOTION_DDOT": 0.0,
    "TLE_LINE1": "1 59897U 24100N   25314.35995018  .00000958  00000+0  44341-4 0  9991",
    "TLE_LINE2": "2 59897  43.0012  79.5909 0001798 263.1871  96.8776 15.27580402 82807",
    "COMMENT": "Grouped by shell and plane from TLE"
  },
  {
    "OBJECT_NAME": "STARLINK-31953",
    "OBJECT_ID": "24100P",
    "EPOCH": "2025-11-10T09:47:17.660256",
    "MEAN_MOTION": 15.2757498,
    "ECCENTRICITY": 0.0001613,
    "INCLINATION": 43.0048,
    "RA_OF_ASC_NODE": 75.6328,
    "ARG_OF_PERICENTER": 278.4327,
    "MEAN_ANOMALY": 81.6342,
    "EPHEMERIS_TYPE": 0,
    "CLASSIFICATION_TYPE": "U",
    "NORAD_CAT_ID": 59898,
    "ELEMENT_SET_NO": 999,
    "REV_AT_EPOCH": 8295,
    "BSTAR": 0.0,
    "MEAN_MOTION_DOT": -4.656e-05,
    "MEAN_MOTION_DDOT": 0.0,
    "TLE_LINE1": "1 59898U 24100P   25314.40784329 -.00004656  00000+0 -15977-3 0  9992",
    "TLE_LINE2": "2 59898  43.0048  75.6328 0001613 278.4327  81.6342 15.27574980 82951",
    "COMMENT": "Grouped by shell and plane from TLE"
  },
  {
    "OBJECT_NAME": "STARLINK-31942",
    "OBJECT_ID": "24100Q",
    "EPOCH": "2025-11-11T07:22:33.660192",
    "MEAN_MOTION": 15.27579206,
    "ECCENTRICITY": 5.69e-05,
    "INCLINATION": 43.0021,
    "RA_OF_ASC_NODE": 73.804,
    "ARG_OF_PERICENTER": 285.8523,
    "MEAN_ANOMALY": 74.2266,
    "EPHEMERIS_TYPE": 0,
    "CLASSIFICATION_TYPE": "U",
    "NORAD_CAT_ID": 59899,
    "ELEMENT_SET_NO": 999,
    "REV_AT_EPOCH": 8304,
    "BSTAR": 4.7828000000000004e-05,
    "MEAN_MOTION_DOT": 1.054e-05,
    "MEAN_MOTION_DDOT": 0.0,
    "TLE_LINE1": "1 59899U 24100Q   25315.30733403  .00001054  00000+0  47828-4 0  9998",
    "TLE_LINE2": "2 59899  43.0021  73.8040 0000569 285.8523  74.2266 15.27579206 83043",
    "COMMENT": "Grouped by shell and plane from TLE"
  },
  {
    "OBJECT_NAME": "STARLINK-31676",
    "OBJECT_ID": "24100R",
    "EPOCH": "2025-11-11T07:48:28.041984",
    "MEAN_MOTION": 15.27592591,
    "ECCENTRICITY": 0.0001032,
    "INCLINATION": 43.0024,
    "RA_OF_ASC_NODE": 73.9316,
    "ARG_OF_PERICENTER": 265.9292,
    "MEAN_ANOMALY": 94.1442,
    "EPHEMERIS_TYPE": 0,
    "CLASSIFICATION_TYPE": "U",
    "NORAD_CAT_ID": 59900,
    "ELEMENT_SET_NO": 999,
    "REV_AT_EPOCH": 8294,
    "BSTAR": 0.00012697,
    "MEAN_MOTION_DOT": 3.235e-05,
    "MEAN_MOTION_DDOT": 0.0,
    "TLE_LINE1": "1 59900U 24100R   25315.32532456  .00003235  00000+0  12697-3 0  9996",
    "TLE_LINE2": "2 59900  43.0024  73.9316 0001032 265.9292  94.1442 15.27592591 82941",
    "COMMENT": "Grouped by shell and plane from TLE"
  },
  {
    "OBJECT_NAME": "STARLINK-31914",
    "OBJECT_ID": "24100T",
    "EPOCH": "2025-11-10T16:23:32.726688",
    "MEAN_MOTION": 15.27590242,
    "ECCENTRICITY": 0.0001249,
    "INCLINATION": 43.0011,
    "RA_OF_ASC_NODE": 77.7104,
    "ARG_OF_PERICENTER": 256.5717,
    "MEAN_ANOMALY": 103.4995,
    "EPHEMERIS_TYPE": 0,
    "CLASSIFICATION_TYPE": "U",
    "NORAD_CAT_ID": 59902,
    "ELEMENT_SET_NO": 999,
    "REV_AT_EPOCH": 8284,
    "BSTAR": 8.8632e-05,
    "MEAN_MOTION_DOT": 2.178e-05,
    "MEAN_MOTION_DDOT": 0.0,
    "TLE_LINE1": "1 59902U 24100T   25314.68301767  .00002178  00000+0  88632-4 0  9993",
    "TLE_LINE2": "2 59902  43.0011  77.7104 0001249 256.5717 103.4995 15.27590242 82841",
    "COMMENT": "Grouped by shell and plane from TLE"
  },
  {
    "OBJECT_NAME": "STARLINK-31850",
    "OBJECT_ID": "24100U",
    "EPOCH": "2025-11-10T15:28:00.709824",
    "MEAN_MOTION": 15.27592925,
    "ECCENTRICITY": 0.0001301,
    "INCLINATION": 43.0001,
    "RA_OF_ASC_NODE": 77.4105,
    "ARG_OF_PERICENTER": 275.8647,
    "MEAN_ANOMALY": 84.2056,
    "EPHEMERIS_TYPE": 0,
    "CLASSIFICATION_TYPE": "U",
    "NORAD_CAT_ID": 59903,
    "ELEMENT_SET_NO": 999,
    "REV_AT_EPOCH": 8289,
    "BSTAR": 5.4383000000000004e-05,
    "MEAN_MOTION_DOT": 1.235e-05,
    "MEAN_MOTION_DDOT": 0.0,
    "TLE_LINE1": "1 59903U 24100U   25314.64445266  .00001235  00000+0  54383-4 0  9992",
    "TLE_LINE2": "2 59903  43.0001  77.4105 0001301 275.8647  84.2056 15.27592925 82893",
    "COMMENT": "Grouped by shell and plane from TLE"
  },
  {
    "OBJECT_NAME": "STARLINK-31924",
    "OBJECT_ID": "24100V",
    "EPOCH": "2025-11-11T07:28:07.209984",
    "MEAN_MOTION": 15.27575265,
    "ECCENTRICITY": 0.0001518,
    "INCLINATION": 43.0037,
    "RA_OF_ASC_NODE": 73.8311,
    "ARG_OF_PERICENTER": 275.5618,
    "MEAN_ANOMALY": 84.506,
    "EPHEMERIS_TYPE": 0,
    "CLASSIFICATION_TYPE": "U",
    "NORAD_CAT_ID": 59904,
    "ELEMENT_SET_NO": 999,
    "REV_AT_EPOCH": 8304,
    "BSTAR": 8.566200000000001e-05,
    "MEAN_MOTION_DOT": 2.095e-05,
    "MEAN_MOTION_DDOT": 0.0,
    "TLE_LINE1": "1 59904U 24100V   25315.31119456  .00002095  00000+0  85662-4 0  9996",
    "TLE_LINE2": "2 59904  43.0037  73.8311 0001518 275.5618  84.5060 15.27575265 83041",
    "COMMENT": "Grouped by shell and plane from TLE"
  },
  {
    "OBJECT_NAME": "STARLINK-31898",
    "OBJECT_ID": "24100W",
    "EPOCH": "2025-11-11T07:41:45.864672",
    "MEAN_MOTION": 15.27582174,
    "ECCENTRICITY": 0.0001501,
    "INCLINATION": 43.0042,
    "RA_OF_ASC_NODE": 70.4406,
    "ARG_OF_PERICENTER": 272.4023,
    "MEAN_ANOMALY": 87.6657,
    "EPHEMERIS_TYPE": 0,
    "CLASSIFICATION_TYPE": "U",
    "NORAD_CAT_ID": 59905,
    "ELEMENT_SET_NO": 999,
    "REV_AT_EPOCH": 8308,
    "BSTAR": 5.6816999999999995e-05,
    "MEAN_MOTION_DOT": 1.302e-05,
    "MEAN_MOTION_DDOT": 0.0,
    "TLE_LINE1": "1 59905U 24100W   25315.32066973  .00001302  00000+0  56817-4 0  9993",
    "TLE_LINE2": "2 59905  43.0042  70.4406 0001501 272.4023  87.6657 15.27582174 83081",
    "COMMENT": "Grouped by shell and plane from TLE"
  }
]